[Satellite]
VERSION=1.1
NAME=CZ-6A DEB
NICKNAME=CZ-6A DEB
TLE1=1 54280U 22151X   22342.24981844  .00001776  00000+0  68144-3 0  9999
TLE2=2 54280  98.6556 346.5797 0089297 232.4383 126.8664 14.29571509  3190
STATUS=0
